{
"type": "FeatureCollection",
"name": "baku_boundary",
"crs": { "type": "name", "properties": { "name": "urn:ogc:def:crs:OGC:1.3:CRS84" } },
"features": [
{ "type": "Feature", "properties": { "bbox_west": 49.7597276, "bbox_south": 40.2983937, "bbox_east": 50.0013381, "bbox_north": 40.4413231, "place_id": 203512873, "osm_type": "relation", "osm_id": 2415335, "lat": 40.3755885, "lon": 49.8328009, "class": "boundary", "type": "administrative", "place_rank": 11, "importance": 0.73128786826882142, "addresstype": "city", "name": "Baku", "display_name": "Baku, Azerbaijan" }, "geometry": { "type": "Polygon", "coordinates": [ [ [ 49.7597276, 40.323783 ], [ 49.7602819, 40.3226049 ], [ 49.7615931, 40.3215218 ], [ 49.7617443, 40.3213969 ], [ 49.7627488, 40.3205672 ], [ 49.7718965, 40.2983937 ], [ 49.7730124, 40.2993592 ], [ 49.7741443, 40.3000915 ], [ 49.7761233, 40.3009557 ], [ 49.7772556, 40.3012943 ], [ 49.7777599, 40.3012043 ], [ 49.7801577, 40.3015745 ], [ 49.7802987, 40.3018 ], [ 49.7804743, 40.3018589 ], [ 49.7810394, 40.3020229 ], [ 49.7841201, 40.3029172 ], [ 49.7853291, 40.3032335 ], [ 49.7864235, 40.3034106 ], [ 49.7873692, 40.3035568 ], [ 49.7906774, 40.3040269 ], [ 49.7925804, 40.3042283 ], [ 49.7939014, 40.3043708 ], [ 49.7963852, 40.3045637 ], [ 49.7989616, 40.3047128 ], [ 49.8019936, 40.3047604 ], [ 49.8032652, 40.3046769 ], [ 49.8044197, 40.3044905 ], [ 49.8058362, 40.3042577 ], [ 49.8063789, 40.304047 ], [ 49.8066209, 40.3039333 ], [ 49.8065991, 40.3035731 ], [ 49.8070816, 40.3035946 ], [ 49.8077041, 40.3035935 ], [ 49.8101582, 40.3033592 ], [ 49.8102006, 40.3032195 ], [ 49.8103837, 40.3027549 ], [ 49.8105714, 40.3028265 ], [ 49.8115208, 40.3025892 ], [ 49.8116186, 40.3024291 ], [ 49.8120721, 40.3013811 ], [ 49.8123872, 40.3004597 ], [ 49.8125535, 40.3004229 ], [ 49.8124194, 40.3010836 ], [ 49.8124052, 40.301369 ], [ 49.812793, 40.3014391 ], [ 49.8129014, 40.3012833 ], [ 49.8141825, 40.3010685 ], [ 49.814663, 40.3010194 ], [ 49.8145974, 40.3015337 ], [ 49.8146808, 40.3018193 ], [ 49.8151993, 40.3020895 ], [ 49.8157373, 40.3021985 ], [ 49.8159385, 40.3019428 ], [ 49.8161477, 40.3019776 ], [ 49.8159733, 40.3023642 ], [ 49.8161289, 40.3024767 ], [ 49.8167163, 40.3026158 ], [ 49.8169523, 40.3026014 ], [ 49.8169631, 40.3024889 ], [ 49.8171481, 40.3025217 ], [ 49.8171213, 40.3026996 ], [ 49.8172957, 40.3027651 ], [ 49.8176589, 40.3029735 ], [ 49.8188634, 40.3031521 ], [ 49.8200361, 40.3032662 ], [ 49.8202461, 40.3032478 ], [ 49.8205414, 40.3031014 ], [ 49.8207852, 40.3031619 ], [ 49.8213283, 40.3032916 ], [ 49.8225063, 40.3033381 ], [ 49.8229566, 40.3032685 ], [ 49.8230859, 40.3030189 ], [ 49.8251303, 40.3035025 ], [ 49.8251637, 40.3035076 ], [ 49.8256564, 40.3035824 ], [ 49.8258235, 40.3036026 ], [ 49.8262153, 40.3035746 ], [ 49.8263568, 40.3035645 ], [ 49.826332, 40.3034994 ], [ 49.8265932, 40.3034772 ], [ 49.826611, 40.3035138 ], [ 49.8266327, 40.3035105 ], [ 49.8275708, 40.30337 ], [ 49.8286166, 40.303167 ], [ 49.8309392, 40.3027161 ], [ 49.831, 40.3027648 ], [ 49.8311635, 40.3032089 ], [ 49.8312188, 40.3034139 ], [ 49.8314339, 40.3038759 ], [ 49.8318656, 40.3044217 ], [ 49.8314552, 40.304734 ], [ 49.8313166, 40.3047127 ], [ 49.8311308, 40.3046898 ], [ 49.8309981, 40.3045782 ], [ 49.8306949, 40.3045282 ], [ 49.8303935, 40.3047293 ], [ 49.8300236, 40.3045446 ], [ 49.8295831, 40.3044693 ], [ 49.829319, 40.3047307 ], [ 49.8287643, 40.305065 ], [ 49.8286155, 40.3051096 ], [ 49.8283763, 40.3051986 ], [ 49.8281465, 40.3051475 ], [ 49.827911, 40.3053273 ], [ 49.827821, 40.3053791 ], [ 49.8264951, 40.3060211 ], [ 49.8251307, 40.3067921 ], [ 49.8249876, 40.3069214 ], [ 49.8250774, 40.3073163 ], [ 49.8250669, 40.3077806 ], [ 49.8249575, 40.307789 ], [ 49.8245675, 40.3077599 ], [ 49.8239594, 40.3076057 ], [ 49.8235512, 40.3078199 ], [ 49.8239493, 40.3084098 ], [ 49.8240402, 40.3085284 ], [ 49.8239867, 40.3086377 ], [ 49.8229621, 40.3090607 ], [ 49.8226197, 40.3121017 ], [ 49.8223814, 40.3131918 ], [ 49.8220819, 40.3138222 ], [ 49.8230352, 40.3142866 ], [ 49.8234225, 40.3143147 ], [ 49.8237206, 40.314381 ], [ 49.8260683, 40.3118237 ], [ 49.8269997, 40.3113367 ], [ 49.8284247, 40.3105865 ], [ 49.8303884, 40.3092615 ], [ 49.830968, 40.3095179 ], [ 49.8317544, 40.3100901 ], [ 49.8324388, 40.3100421 ], [ 49.8329748, 40.3097218 ], [ 49.8333919, 40.3099043 ], [ 49.8334579, 40.3097679 ], [ 49.8355365, 40.3093692 ], [ 49.8355853, 40.3096667 ], [ 49.8358606, 40.3097429 ], [ 49.8367316, 40.3124623 ], [ 49.8367001, 40.3130479 ], [ 49.8369755, 40.3139099 ], [ 49.8370531, 40.314345 ], [ 49.8370244, 40.314506 ], [ 49.8370408, 40.3146419 ], [ 49.8371391, 40.3147607 ], [ 49.8373142, 40.3148085 ], [ 49.8438876, 40.3346548 ], [ 49.8439209, 40.3346868 ], [ 49.8441067, 40.3347544 ], [ 49.8441474, 40.3347984 ], [ 49.8447359, 40.3364921 ], [ 49.8447991, 40.3365243 ], [ 49.8449377, 40.3365398 ], [ 49.8450536, 40.3366017 ], [ 49.8451236, 40.3367082 ], [ 49.8451174, 40.3368491 ], [ 49.8450709, 40.3369233 ], [ 49.8449692, 40.3369939 ], [ 49.8447677, 40.3370111 ], [ 49.8445958, 40.3369515 ], [ 49.8445056, 40.3368766 ], [ 49.8444424, 40.3368604 ], [ 49.837485, 40.3381236 ], [ 49.8376835, 40.3388542 ], [ 49.8394631, 40.3388763 ], [ 49.8406978, 40.3384687 ], [ 49.8408884, 40.338444 ], [ 49.8416295, 40.3385141 ], [ 49.8424833, 40.3391825 ], [ 49.8427825, 40.3401104 ], [ 49.8427997, 40.3406866 ], [ 49.8446812, 40.3417088 ], [ 49.844574, 40.3418723 ], [ 49.8450058, 40.3420866 ], [ 49.8449276, 40.3422898 ], [ 49.8455072, 40.3425792 ], [ 49.845684, 40.3428421 ], [ 49.8466183, 40.343101 ], [ 49.8470273, 40.3421891 ], [ 49.8470892, 40.3420563 ], [ 49.8481075, 40.3424031 ], [ 49.8482717, 40.3424511 ], [ 49.8577752, 40.3443262 ], [ 49.8600751, 40.3447749 ], [ 49.8603177, 40.3447387 ], [ 49.8605242, 40.3447551 ], [ 49.8607495, 40.3448614 ], [ 49.8609614, 40.345074 ], [ 49.8610768, 40.3452437 ], [ 49.8611706, 40.3454379 ], [ 49.8612296, 40.3457159 ], [ 49.861227, 40.3458017 ], [ 49.8611785, 40.3458789 ], [ 49.8610714, 40.3459489 ], [ 49.8609292, 40.3459776 ], [ 49.8574993, 40.3458539 ], [ 49.8573869, 40.3458348 ], [ 49.8572913, 40.3458186 ], [ 49.8570398, 40.3456832 ], [ 49.8568596, 40.3455913 ], [ 49.8565924, 40.3454776 ], [ 49.8562671, 40.3453704 ], [ 49.8558342, 40.3452527 ], [ 49.8554373, 40.3451637 ], [ 49.854961, 40.3450854 ], [ 49.854522, 40.3450356 ], [ 49.8541513, 40.3450019 ], [ 49.8536959, 40.3449839 ], [ 49.853269, 40.344977 ], [ 49.8529197, 40.3450256 ], [ 49.8526471, 40.3450877 ], [ 49.8523199, 40.3451803 ], [ 49.8518959, 40.3452648 ], [ 49.8514637, 40.3453267 ], [ 49.8509332, 40.3453797 ], [ 49.8477629, 40.345557 ], [ 49.8477101, 40.3455767 ], [ 49.8476612, 40.3456086 ], [ 49.847188, 40.3463512 ], [ 49.8471299, 40.3464299 ], [ 49.8470884, 40.346486 ], [ 49.846554, 40.3473594 ], [ 49.8465927, 40.3474477 ], [ 49.8466069, 40.3475329 ], [ 49.8466018, 40.3476147 ], [ 49.8465683, 40.347677 ], [ 49.8465242, 40.3477352 ], [ 49.8464431, 40.3478247 ], [ 49.8463164, 40.3479095 ], [ 49.8461678, 40.3479605 ], [ 49.8460945, 40.34797 ], [ 49.8460074, 40.3479748 ], [ 49.8459256, 40.3479639 ], [ 49.8458304, 40.3479512 ], [ 49.8451432, 40.3490151 ], [ 49.8450347, 40.3493077 ], [ 49.8447008, 40.3492875 ], [ 49.8446725, 40.3492012 ], [ 49.8446229, 40.3491176 ], [ 49.8444863, 40.3490342 ], [ 49.8431021, 40.3487953 ], [ 49.8420773, 40.3488169 ], [ 49.8420304, 40.3487828 ], [ 49.842028, 40.3486796 ], [ 49.8420794, 40.3486369 ], [ 49.8429457, 40.3486227 ], [ 49.8431115, 40.3484856 ], [ 49.8430179, 40.3471379 ], [ 49.8406754, 40.3472146 ], [ 49.8403042, 40.3474139 ], [ 49.8399843, 40.3476132 ], [ 49.8399194, 40.3476536 ], [ 49.8398559, 40.3476915 ], [ 49.8394472, 40.3479816 ], [ 49.8388798, 40.3484478 ], [ 49.8388121, 40.3485065 ], [ 49.838595, 40.3487148 ], [ 49.8385394, 40.3487699 ], [ 49.8383256, 40.3490063 ], [ 49.8380065, 40.3493878 ], [ 49.8378044, 40.3496703 ], [ 49.8376817, 40.3498649 ], [ 49.8375522, 40.3500688 ], [ 49.8374506, 40.3502455 ], [ 49.8373457, 40.3504462 ], [ 49.8372669, 40.3506725 ], [ 49.8372051, 40.35086 ], [ 49.8371286, 40.3510495 ], [ 49.8370557, 40.3513954 ], [ 49.8369662, 40.3520274 ], [ 49.8370002, 40.3524659 ], [ 49.8371029, 40.3530959 ], [ 49.837264, 40.3535834 ], [ 49.8373271, 40.3537471 ], [ 49.8373084, 40.3537845 ], [ 49.8372623, 40.3538195 ], [ 49.8359546, 40.3540863 ], [ 49.8358945, 40.3541726 ], [ 49.8360081, 40.3545509 ], [ 49.8360582, 40.3545782 ], [ 49.8361105, 40.3546007 ], [ 49.8376602, 40.3543439 ], [ 49.8377135, 40.3543479 ], [ 49.8377582, 40.3543774 ], [ 49.8377882, 40.3544183 ], [ 49.837905, 40.3548661 ], [ 49.8378845, 40.3549204 ], [ 49.8378403, 40.3549587 ], [ 49.8377783, 40.3549768 ], [ 49.8359648, 40.3552471 ], [ 49.8365059, 40.3574646 ], [ 49.8379248, 40.3573071 ], [ 49.8379087, 40.3572009 ], [ 49.8383432, 40.3571539 ], [ 49.8386748, 40.3588634 ], [ 49.8370675, 40.3591958 ], [ 49.8374376, 40.3622358 ], [ 49.8374406, 40.3623167 ], [ 49.8374415, 40.3624052 ], [ 49.8375655, 40.362814 ], [ 49.837763, 40.3631971 ], [ 49.8379823, 40.3634671 ], [ 49.8384143, 40.3639499 ], [ 49.8391014, 40.3646705 ], [ 49.8395988, 40.3651257 ], [ 49.8403233, 40.3657261 ], [ 49.8411001, 40.3663058 ], [ 49.8416747, 40.3666865 ], [ 49.8423628, 40.3670984 ], [ 49.8430283, 40.3674756 ], [ 49.8437395, 40.36782 ], [ 49.8438147, 40.3677374 ], [ 49.8438885, 40.3677731 ], [ 49.8439662, 40.367812 ], [ 49.8440441, 40.3678567 ], [ 49.8446463, 40.368129 ], [ 49.8450907, 40.3683437 ], [ 49.8455342, 40.3685174 ], [ 49.8462899, 40.3687431 ], [ 49.847221, 40.3690088 ], [ 49.8487537, 40.3694463 ], [ 49.8488395, 40.3694483 ], [ 49.8489093, 40.3694217 ], [ 49.8489616, 40.3693655 ], [ 49.8490206, 40.3693124 ], [ 49.8490769, 40.3692869 ], [ 49.849148, 40.3692869 ], [ 49.8493116, 40.3693288 ], [ 49.8494759, 40.3693771 ], [ 49.8496243, 40.3694264 ], [ 49.8497163, 40.3694586 ], [ 49.8513013, 40.369977 ], [ 49.8521152, 40.3702418 ], [ 49.8525737, 40.370391 ], [ 49.852693, 40.3704684 ], [ 49.852883, 40.3706401 ], [ 49.8534183, 40.370753 ], [ 49.853528, 40.3707141 ], [ 49.8537047, 40.3706838 ], [ 49.8538859, 40.3706737 ], [ 49.8540726, 40.3706737 ], [ 49.8542138, 40.3706988 ], [ 49.8543861, 40.3707392 ], [ 49.8545408, 40.3707965 ], [ 49.8546822, 40.3708705 ], [ 49.85485, 40.3709816 ], [ 49.8549738, 40.3711162 ], [ 49.8550444, 40.3712239 ], [ 49.855093, 40.3713283 ], [ 49.8551195, 40.3714192 ], [ 49.8551328, 40.3715134 ], [ 49.8555304, 40.3716312 ], [ 49.8556983, 40.3715639 ], [ 49.855822, 40.371537 ], [ 49.8559634, 40.3715302 ], [ 49.8561578, 40.3715269 ], [ 49.8563213, 40.3715673 ], [ 49.85647, 40.371632 ], [ 49.8566789, 40.3706827 ], [ 49.8568537, 40.3706948 ], [ 49.8566482, 40.3716851 ], [ 49.8564361, 40.3726208 ], [ 49.8570548, 40.3727774 ], [ 49.8572278, 40.3728212 ], [ 49.8577039, 40.3729417 ], [ 49.8577759, 40.3727682 ], [ 49.8572435, 40.3716818 ], [ 49.8572128, 40.3715537 ], [ 49.8572218, 40.3714469 ], [ 49.857265, 40.3713467 ], [ 49.8573307, 40.3712566 ], [ 49.8574085, 40.3711854 ], [ 49.8575621, 40.3711015 ], [ 49.8576934, 40.3710504 ], [ 49.8592307, 40.3706408 ], [ 49.8595578, 40.3706871 ], [ 49.8598771, 40.3707368 ], [ 49.8597144, 40.3703992 ], [ 49.8619586, 40.3697302 ], [ 49.8633748, 40.3726699 ], [ 49.8634889, 40.3726787 ], [ 49.863613, 40.3727065 ], [ 49.8637375, 40.3727296 ], [ 49.8638986, 40.372738 ], [ 49.8640811, 40.3727123 ], [ 49.8642348, 40.3726685 ], [ 49.8643497, 40.3726183 ], [ 49.8644562, 40.3725475 ], [ 49.8645305, 40.3724612 ], [ 49.8645913, 40.3723789 ], [ 49.8646184, 40.3722643 ], [ 49.8646302, 40.3721163 ], [ 49.8646251, 40.3720004 ], [ 49.8646201, 40.3718768 ], [ 49.8646116, 40.3716 ], [ 49.8646167, 40.3713091 ], [ 49.8646403, 40.3710092 ], [ 49.864686, 40.3707157 ], [ 49.8647105, 40.3706468 ], [ 49.8647502, 40.3705753 ], [ 49.8648406, 40.3704875 ], [ 49.8649373, 40.3704289 ], [ 49.8651346, 40.3703726 ], [ 49.8652824, 40.3703624 ], [ 49.8654193, 40.3703803 ], [ 49.8655443, 40.3704247 ], [ 49.8656449, 40.370482 ], [ 49.8657209, 40.3705451 ], [ 49.8658366, 40.3707024 ], [ 49.865889, 40.3708689 ], [ 49.8659397, 40.3710697 ], [ 49.8660147, 40.3713677 ], [ 49.8660797, 40.3715925 ], [ 49.8660851, 40.3716712 ], [ 49.8660904, 40.3717498 ], [ 49.8660914, 40.372191 ], [ 49.8661692, 40.3724383 ], [ 49.8662979, 40.3726814 ], [ 49.8664776, 40.3729124 ], [ 49.866652, 40.3730656 ], [ 49.8668451, 40.3732107 ], [ 49.8670784, 40.3733272 ], [ 49.8672957, 40.3734191 ], [ 49.8675344, 40.3734988 ], [ 49.8678161, 40.3735662 ], [ 49.8713566, 40.3736419 ], [ 49.8713566, 40.3737849 ], [ 49.871378, 40.3739218 ], [ 49.8714451, 40.3740669 ], [ 49.8715255, 40.3741915 ], [ 49.8716167, 40.3742814 ], [ 49.8716945, 40.3743509 ], [ 49.8718045, 40.3744326 ], [ 49.8719627, 40.3745103 ], [ 49.8721371, 40.3745716 ], [ 49.8725001, 40.3745944 ], [ 49.8726491, 40.3746029 ], [ 49.8727981, 40.3746113 ], [ 49.873502, 40.3746388 ], [ 49.8782148, 40.3747981 ], [ 49.8785086, 40.37481 ], [ 49.8787115, 40.3748197 ], [ 49.878885, 40.3748059 ], [ 49.8790266, 40.3747581 ], [ 49.8791649, 40.3746851 ], [ 49.8792969, 40.3745926 ], [ 49.8794289, 40.3744799 ], [ 49.8795428, 40.3743331 ], [ 49.8795971, 40.3741937 ], [ 49.8796145, 40.3740623 ], [ 49.8795843, 40.3739267 ], [ 49.8797954, 40.3739368 ], [ 49.8799088, 40.3739437 ], [ 49.8799652, 40.3739471 ], [ 49.8811354, 40.3740178 ], [ 49.8813467, 40.3740306 ], [ 49.8822842, 40.3740873 ], [ 49.8823944, 40.3740939 ], [ 49.8825144, 40.3741012 ], [ 49.8834279, 40.3741597 ], [ 49.883669, 40.3741731 ], [ 49.8838926, 40.37418 ], [ 49.8840102, 40.3741773 ], [ 49.8840921, 40.3741672 ], [ 49.8842141, 40.3741427 ], [ 49.8843482, 40.3740998 ], [ 49.8844716, 40.3740466 ], [ 49.8845789, 40.3739853 ], [ 49.8846902, 40.3739016 ], [ 49.8848002, 40.3737933 ], [ 49.8848632, 40.3736921 ], [ 49.8849182, 40.3735685 ], [ 49.8849517, 40.3734387 ], [ 49.8849665, 40.3732906 ], [ 49.8855472, 40.3733161 ], [ 49.8878924, 40.3734385 ], [ 49.8879007, 40.3729662 ], [ 49.8882215, 40.3729985 ], [ 49.8883825, 40.3730756 ], [ 49.8888127, 40.3731396 ], [ 49.8892389, 40.3732582 ], [ 49.8894983, 40.3733871 ], [ 49.8897494, 40.3734974 ], [ 49.8902543, 40.3739099 ], [ 49.8905488, 40.374026 ], [ 49.8907461, 40.3740779 ], [ 49.8915845, 40.3742228 ], [ 49.8958778, 40.3741282 ], [ 49.8966948, 40.3738503 ], [ 49.901943, 40.3730664 ], [ 49.9017498, 40.3726137 ], [ 49.9028476, 40.3722394 ], [ 49.9027566, 40.3717184 ], [ 49.9035566, 40.3715473 ], [ 49.9040673, 40.3712778 ], [ 49.9054756, 40.370348 ], [ 49.9090302, 40.3694911 ], [ 49.9128565, 40.3684727 ], [ 49.9141558, 40.3680657 ], [ 49.9143836, 40.3680024 ], [ 49.9148896, 40.3679165 ], [ 49.9162141, 40.3674933 ], [ 49.9166086, 40.36752 ], [ 49.9168366, 40.3676637 ], [ 49.9172373, 40.368289 ], [ 49.9175131, 40.3683946 ], [ 49.9178044, 40.3684081 ], [ 49.9180251, 40.3681932 ], [ 49.9181324, 40.3677546 ], [ 49.9181981, 40.3677738 ], [ 49.9181565, 40.3681932 ], [ 49.9186313, 40.3685281 ], [ 49.9187434, 40.368908 ], [ 49.9189148, 40.3691833 ], [ 49.9190521, 40.369125 ], [ 49.9195888, 40.368971 ], [ 49.9201349, 40.3686143 ], [ 49.9202398, 40.3682998 ], [ 49.9205933, 40.3681515 ], [ 49.9210361, 40.3682024 ], [ 49.9214449, 40.3681545 ], [ 49.9214554, 40.3681532 ], [ 49.921991, 40.3681772 ], [ 49.9224383, 40.3680381 ], [ 49.922808, 40.3677759 ], [ 49.9229145, 40.3671979 ], [ 49.9271082, 40.3635089 ], [ 49.9280429, 40.3642357 ], [ 49.9288417, 40.3650569 ], [ 49.9306571, 40.3640874 ], [ 49.9306614, 40.3634661 ], [ 49.9341159, 40.3621869 ], [ 49.9348587, 40.3621798 ], [ 49.9354983, 40.3619571 ], [ 49.9369156, 40.3613249 ], [ 49.9370643, 40.3611056 ], [ 49.9373916, 40.3609861 ], [ 49.9373943, 40.3609309 ], [ 49.9373138, 40.360842 ], [ 49.9371529, 40.3606294 ], [ 49.9367505, 40.3601164 ], [ 49.9368846, 40.3600183 ], [ 49.9374264, 40.360562 ], [ 49.9375069, 40.3605415 ], [ 49.9382569, 40.3606265 ], [ 49.9381463, 40.3603455 ], [ 49.9385978, 40.360002 ], [ 49.9391147, 40.3597701 ], [ 49.9404379, 40.3589891 ], [ 49.9407164, 40.3592382 ], [ 49.9413586, 40.3589024 ], [ 49.9415441, 40.358834 ], [ 49.9419507, 40.3584452 ], [ 49.9417017, 40.3582948 ], [ 49.9417723, 40.358186 ], [ 49.9421416, 40.357887 ], [ 49.9422897, 40.3578164 ], [ 49.9454341, 40.3557565 ], [ 49.9455624, 40.3557153 ], [ 49.9456738, 40.3556548 ], [ 49.9470351, 40.3541717 ], [ 49.9454822, 40.3533455 ], [ 49.947549, 40.3524802 ], [ 49.947302, 40.3520294 ], [ 49.9500933, 40.3499357 ], [ 49.9505067, 40.350175 ], [ 49.9505952, 40.3500461 ], [ 49.9501336, 40.3498069 ], [ 49.9506105, 40.349257 ], [ 49.9513818, 40.3489663 ], [ 49.9515618, 40.3487094 ], [ 49.9511241, 40.3485001 ], [ 49.9516611, 40.347742 ], [ 49.951572, 40.34771 ], [ 49.9523297, 40.3466024 ], [ 49.9523735, 40.3466119 ], [ 49.9527528, 40.3459254 ], [ 49.9540499, 40.3461092 ], [ 49.9546063, 40.3456413 ], [ 49.9549099, 40.345428 ], [ 49.9549739, 40.3450588 ], [ 49.9556456, 40.3450762 ], [ 49.955801, 40.3443954 ], [ 49.9556078, 40.3439215 ], [ 49.9550284, 40.343098 ], [ 49.9552751, 40.3430439 ], [ 49.9555553, 40.3419491 ], [ 49.9559607, 40.3404547 ], [ 49.9561885, 40.3389666 ], [ 49.9563455, 40.338065 ], [ 49.9565562, 40.3374428 ], [ 49.9567319, 40.3369586 ], [ 49.9568059, 40.3367826 ], [ 49.9572984, 40.336759 ], [ 49.9576167, 40.336563 ], [ 49.9579453, 40.3360847 ], [ 49.9580634, 40.3356598 ], [ 49.9583369, 40.335533 ], [ 49.9584713, 40.33522 ], [ 49.9590163, 40.3343336 ], [ 49.9596512, 40.3340282 ], [ 49.9589509, 40.335273 ], [ 49.9589124, 40.3354195 ], [ 49.9589177, 40.3355569 ], [ 49.9589442, 40.335637 ], [ 49.9590086, 40.3357808 ], [ 49.9590062, 40.3358559 ], [ 49.9589925, 40.3359838 ], [ 49.9590104, 40.3360458 ], [ 49.9593173, 40.3363659 ], [ 49.9602915, 40.3366043 ], [ 49.9611235, 40.3367998 ], [ 49.9613239, 40.3371093 ], [ 49.9611573, 40.3374033 ], [ 49.961298, 40.3376391 ], [ 49.9626263, 40.3382718 ], [ 49.9630281, 40.3384342 ], [ 49.9639301, 40.3386949 ], [ 49.9644631, 40.3391804 ], [ 49.9646913, 40.3391639 ], [ 49.9651613, 40.339016 ], [ 49.9654356, 40.338948 ], [ 49.9661115, 40.3390913 ], [ 49.9670917, 40.3390823 ], [ 49.9672523, 40.339417 ], [ 49.9674565, 40.3395075 ], [ 49.9676496, 40.3394421 ], [ 49.9678045, 40.3388108 ], [ 49.9680787, 40.3385875 ], [ 49.9684381, 40.3385385 ], [ 49.9686366, 40.338792 ], [ 49.9682879, 40.3391232 ], [ 49.9685588, 40.3391354 ], [ 49.9686286, 40.3391579 ], [ 49.9686849, 40.3392131 ], [ 49.968701, 40.3393072 ], [ 49.9687278, 40.3394217 ], [ 49.9688083, 40.3398183 ], [ 49.9688727, 40.3400923 ], [ 49.9708682, 40.3399778 ], [ 49.9709979, 40.3400626 ], [ 49.9711522, 40.340115 ], [ 49.9713268, 40.3401278 ], [ 49.9714558, 40.3401423 ], [ 49.9716046, 40.3401499 ], [ 49.9717242, 40.3401545 ], [ 49.9718201, 40.3401619 ], [ 49.9719122, 40.3401291 ], [ 49.9720001, 40.3400554 ], [ 49.9720752, 40.3399778 ], [ 49.972161, 40.3398387 ], [ 49.9722147, 40.3397242 ], [ 49.9722952, 40.3396506 ], [ 49.972381, 40.3396138 ], [ 49.9724883, 40.3396343 ], [ 49.9725956, 40.3396384 ], [ 49.9727082, 40.3396261 ], [ 49.9728316, 40.3396057 ], [ 49.9729443, 40.3396547 ], [ 49.9732071, 40.3401209 ], [ 49.9732929, 40.3402231 ], [ 49.9733734, 40.3402681 ], [ 49.9734512, 40.3402742 ], [ 49.9735853, 40.3402537 ], [ 49.9737811, 40.3402067 ], [ 49.9740225, 40.3401311 ], [ 49.9741593, 40.3400779 ], [ 49.9748111, 40.3398709 ], [ 49.9747112, 40.3404491 ], [ 49.9749966, 40.3404035 ], [ 49.9750214, 40.3404029 ], [ 49.9750997, 40.340401 ], [ 49.9751451, 40.3403999 ], [ 49.9752081, 40.3403984 ], [ 49.9752867, 40.3403965 ], [ 49.9754062, 40.3403276 ], [ 49.9754347, 40.3403268 ], [ 49.9755193, 40.3403245 ], [ 49.9755769, 40.3403526 ], [ 49.9756022, 40.3404158 ], [ 49.9757358, 40.3404404 ], [ 49.9758231, 40.3404493 ], [ 49.975852, 40.3404522 ], [ 49.9759832, 40.3404656 ], [ 49.9760017, 40.3404674 ], [ 49.9760467, 40.340472 ], [ 49.9763749, 40.3404787 ], [ 49.976528, 40.3404369 ], [ 49.9766477, 40.3403877 ], [ 49.9767375, 40.3403702 ], [ 49.9767795, 40.3402772 ], [ 49.9768003, 40.3402726 ], [ 49.9768178, 40.3402711 ], [ 49.9769331, 40.3402507 ], [ 49.9770112, 40.3402375 ], [ 49.9773707, 40.3401593 ], [ 49.9773887, 40.3401527 ], [ 49.9774626, 40.3401254 ], [ 49.9775919, 40.3401578 ], [ 49.9776005, 40.3401555 ], [ 49.9776495, 40.340142 ], [ 49.977672, 40.3401285 ], [ 49.977728, 40.3400951 ], [ 49.9778521, 40.3400209 ], [ 49.9782298, 40.33997 ], [ 49.9785121, 40.3398919 ], [ 49.9790657, 40.3397435 ], [ 49.9791878, 40.3397347 ], [ 49.979296, 40.3397804 ], [ 49.9794802, 40.3397874 ], [ 49.9795746, 40.3397786 ], [ 49.9796668, 40.3397435 ], [ 49.9797635, 40.3397716 ], [ 49.9798942, 40.3398839 ], [ 49.9800238, 40.3399239 ], [ 49.980112, 40.3398986 ], [ 49.980192, 40.3399701 ], [ 49.9802995, 40.3399869 ], [ 49.9806773, 40.3399491 ], [ 49.9810468, 40.3398923 ], [ 49.9814219, 40.3398356 ], [ 49.9818052, 40.3397599 ], [ 49.9827786, 40.3395728 ], [ 49.9836748, 40.3392996 ], [ 49.9840113, 40.3392344 ], [ 49.9842788, 40.3391356 ], [ 49.9844001, 40.3391104 ], [ 49.9847697, 40.3388841 ], [ 49.9834263, 40.3355862 ], [ 49.9841881, 40.3353572 ], [ 49.985527, 40.3385965 ], [ 49.9858785, 40.3387219 ], [ 49.9862042, 40.3386687 ], [ 49.9862561, 40.3386586 ], [ 49.9862967, 40.3386539 ], [ 49.9876572, 40.3384749 ], [ 49.9885542, 40.3382657 ], [ 49.9891254, 40.3381219 ], [ 49.9900418, 40.3398215 ], [ 49.9918134, 40.3402231 ], [ 49.9913471, 40.343272 ], [ 49.9895188, 40.3433001 ], [ 49.988048, 40.3470105 ], [ 49.9857249, 40.3472065 ], [ 49.9814302, 40.3595411 ], [ 49.9858626, 40.3606984 ], [ 49.9923273, 40.3617947 ], [ 49.9962888, 40.3633607 ], [ 49.9993968, 40.3651488 ], [ 50.0008937, 40.3670186 ], [ 49.9993234, 40.3738694 ], [ 50.0013381, 40.3768227 ], [ 49.9940527, 40.3811068 ], [ 49.9903993, 40.3817759 ], [ 49.9898207, 40.3846214 ], [ 49.9895919, 40.3851914 ], [ 49.985926, 40.3880831 ], [ 49.9882751, 40.3893572 ], [ 49.9885649, 40.3912897 ], [ 49.9894242, 40.3932685 ], [ 49.9913557, 40.3931646 ], [ 49.9932103, 40.3942004 ], [ 49.9938365, 40.3954211 ], [ 49.9958284, 40.3955849 ], [ 49.9976045, 40.400102 ], [ 49.9957216, 40.4005922 ], [ 49.9959605, 40.401193 ], [ 49.9937046, 40.4022222 ], [ 49.9931614, 40.4025296 ], [ 49.9925271, 40.402886 ], [ 49.9922749, 40.403124 ], [ 49.9918686, 40.4032812 ], [ 49.9914475, 40.40334 ], [ 49.9915078, 40.4038422 ], [ 49.9908682, 40.4040114 ], [ 49.9909754, 40.4044373 ], [ 49.9909668, 40.4046893 ], [ 49.9893903, 40.4046972 ], [ 49.9879579, 40.404712 ], [ 49.9867013, 40.4047876 ], [ 49.9865134, 40.4061154 ], [ 49.9863473, 40.4064338 ], [ 49.985835, 40.4071078 ], [ 49.9847782, 40.4069964 ], [ 49.9824587, 40.4171084 ], [ 49.9759923, 40.4275362 ], [ 49.9648712, 40.4333193 ], [ 49.9645369, 40.4336934 ], [ 49.9641258, 40.4338986 ], [ 49.9636283, 40.4339338 ], [ 49.9631596, 40.4342497 ], [ 49.959839, 40.4363893 ], [ 49.9600874, 40.436677 ], [ 49.9600536, 40.4367996 ], [ 49.9598277, 40.4372209 ], [ 49.9594549, 40.4374532 ], [ 49.959823, 40.4380157 ], [ 49.9593008, 40.4382449 ], [ 49.958809, 40.4380551 ], [ 49.9561135, 40.4364665 ], [ 49.9554723, 40.436002 ], [ 49.9549709, 40.435525 ], [ 49.954433, 40.4345765 ], [ 49.9543015, 40.4337588 ], [ 49.9542666, 40.4334362 ], [ 49.9542278, 40.4331932 ], [ 49.9541782, 40.432938 ], [ 49.9541111, 40.432691 ], [ 49.9540588, 40.4325062 ], [ 49.9539412, 40.4322274 ], [ 49.9536296, 40.4315845 ], [ 49.9535224, 40.4314201 ], [ 49.9533817, 40.4312286 ], [ 49.9531012, 40.4308545 ], [ 49.9528519, 40.4305604 ], [ 49.9525555, 40.4302768 ], [ 49.9521532, 40.429915 ], [ 49.9524704, 40.4296735 ], [ 49.9512355, 40.4288521 ], [ 49.9510168, 40.4290681 ], [ 49.9505612, 40.4288618 ], [ 49.9501205, 40.4286726 ], [ 49.9495529, 40.4284674 ], [ 49.9490699, 40.4283248 ], [ 49.9485013, 40.4281952 ], [ 49.9477218, 40.4280709 ], [ 49.9451004, 40.4277018 ], [ 49.9397541, 40.4269525 ], [ 49.9346839, 40.4262357 ], [ 49.9330612, 40.4260015 ], [ 49.9319278, 40.4258396 ], [ 49.92981, 40.4255564 ], [ 49.9279985, 40.425302 ], [ 49.9262081, 40.4250316 ], [ 49.9252638, 40.4248888 ], [ 49.9246562, 40.4247364 ], [ 49.9239983, 40.42453 ], [ 49.9235054, 40.4243418 ], [ 49.9219379, 40.4257023 ], [ 49.9255389, 40.4299174 ], [ 49.9293063, 40.4342244 ], [ 49.9251687, 40.4363403 ], [ 49.9237112, 40.4342275 ], [ 49.9143142, 40.4382038 ], [ 49.8650998, 40.4408824 ], [ 49.8587963, 40.4413231 ], [ 49.8599284, 40.4383946 ], [ 49.8571583, 40.4380378 ], [ 49.8569547, 40.4367058 ], [ 49.8568249, 40.4358571 ], [ 49.856544, 40.4344848 ], [ 49.8564493, 40.4328469 ], [ 49.8537185, 40.4329043 ], [ 49.8524631, 40.4329182 ], [ 49.851199, 40.4330954 ], [ 49.8501591, 40.433393 ], [ 49.8495256, 40.4335079 ], [ 49.8494571, 40.4329447 ], [ 49.8488015, 40.4320552 ], [ 49.8481604, 40.4323101 ], [ 49.8478471, 40.4319029 ], [ 49.8478305, 40.4318788 ], [ 49.8477985, 40.4318397 ], [ 49.8475901, 40.4315929 ], [ 49.8469821, 40.4308433 ], [ 49.846076, 40.4308167 ], [ 49.8452415, 40.4302025 ], [ 49.8447905, 40.4292266 ], [ 49.8438194, 40.4297221 ], [ 49.8427354, 40.4286251 ], [ 49.8421226, 40.4284902 ], [ 49.8405667, 40.4286365 ], [ 49.8403739, 40.4284671 ], [ 49.8399428, 40.4286706 ], [ 49.839621, 40.4283687 ], [ 49.8389665, 40.427679 ], [ 49.8389089, 40.4276051 ], [ 49.8388522, 40.4274757 ], [ 49.8387686, 40.4271472 ], [ 49.8384487, 40.4256894 ], [ 49.837796, 40.4230351 ], [ 49.8373818, 40.421354 ], [ 49.8365337, 40.4180471 ], [ 49.8355852, 40.4139592 ], [ 49.8352197, 40.4121823 ], [ 49.8349611, 40.4109098 ], [ 49.8340379, 40.4107057 ], [ 49.8332741, 40.4111004 ], [ 49.8306994, 40.4120916 ], [ 49.82935, 40.4126429 ], [ 49.8264816, 40.4137648 ], [ 49.8262999, 40.4137841 ], [ 49.8261682, 40.4137605 ], [ 49.8259432, 40.4136514 ], [ 49.825809, 40.4138371 ], [ 49.82572, 40.4140555 ], [ 49.8234898, 40.4135613 ], [ 49.8232921, 40.4140839 ], [ 49.8237599, 40.4145965 ], [ 49.8243102, 40.4152955 ], [ 49.8257893, 40.4174878 ], [ 49.8265535, 40.4186919 ], [ 49.8240006, 40.4219304 ], [ 49.8220963, 40.4210485 ], [ 49.8217237, 40.4215413 ], [ 49.821361, 40.4220954 ], [ 49.821212, 40.4222326 ], [ 49.8210109, 40.4224333 ], [ 49.8208367, 40.4225432 ], [ 49.8223065, 40.4239647 ], [ 49.8222652, 40.4243872 ], [ 49.8222429, 40.424566 ], [ 49.8222607, 40.4247107 ], [ 49.8224502, 40.4252747 ], [ 49.8226185, 40.4257915 ], [ 49.82257, 40.4263674 ], [ 49.8225525, 40.4267783 ], [ 49.8227472, 40.4274664 ], [ 49.8229456, 40.4281312 ], [ 49.822949, 40.4283505 ], [ 49.8222336, 40.4292138 ], [ 49.8219746, 40.4292941 ], [ 49.8214718, 40.4293649 ], [ 49.8202475, 40.4295283 ], [ 49.820072, 40.4295643 ], [ 49.8196068, 40.4292836 ], [ 49.818612, 40.4287245 ], [ 49.8172646, 40.4280347 ], [ 49.8153089, 40.4269817 ], [ 49.8148455, 40.4269929 ], [ 49.8135629, 40.4262191 ], [ 49.8128383, 40.4256597 ], [ 49.8114216, 40.4245713 ], [ 49.8107797, 40.4240779 ], [ 49.808549, 40.4223631 ], [ 49.8070625, 40.420956 ], [ 49.8050782, 40.4189855 ], [ 49.8033544, 40.4173381 ], [ 49.8024935, 40.41654 ], [ 49.8023042, 40.4163736 ], [ 49.8020892, 40.4164105 ], [ 49.8014949, 40.4157238 ], [ 49.8004568, 40.4149224 ], [ 49.7997729, 40.4142408 ], [ 49.7988939, 40.4134908 ], [ 49.7983591, 40.412951 ], [ 49.7977409, 40.4122712 ], [ 49.7964313, 40.4102943 ], [ 49.7936795, 40.4056283 ], [ 49.7927932, 40.4040208 ], [ 49.79185, 40.402591 ], [ 49.7918018, 40.402525 ], [ 49.7912527, 40.401773 ], [ 49.7908813, 40.4012642 ], [ 49.790487, 40.4006882 ], [ 49.790256, 40.4003075 ], [ 49.7894565, 40.3987032 ], [ 49.7894203, 40.3986409 ], [ 49.7890103, 40.3978266 ], [ 49.7884547, 40.3968833 ], [ 49.7878627, 40.3959922 ], [ 49.787482, 40.3955058 ], [ 49.7872112, 40.3951234 ], [ 49.786793, 40.3942832 ], [ 49.7865598, 40.3935908 ], [ 49.7863397, 40.3926231 ], [ 49.7862653, 40.3913138 ], [ 49.7862518, 40.3907401 ], [ 49.7862411, 40.3900925 ], [ 49.786302, 40.388853 ], [ 49.7863336, 40.3881001 ], [ 49.7863813, 40.387495 ], [ 49.7865809, 40.3866585 ], [ 49.7870686, 40.3851015 ], [ 49.7876955, 40.3830636 ], [ 49.7878236, 40.382709 ], [ 49.7879977, 40.3822968 ], [ 49.788183, 40.3818673 ], [ 49.7883619, 40.3813875 ], [ 49.7889326, 40.3803288 ], [ 49.7893504, 40.3794475 ], [ 49.7896032, 40.378923 ], [ 49.7898684, 40.3782895 ], [ 49.7901718, 40.3774549 ], [ 49.7903596, 40.3768665 ], [ 49.7898106, 40.376761 ], [ 49.7901946, 40.3753166 ], [ 49.7904468, 40.3740252 ], [ 49.7902366, 40.3738354 ], [ 49.7904494, 40.3729504 ], [ 49.7907432, 40.3721001 ], [ 49.7910026, 40.3716116 ], [ 49.7913089, 40.3709843 ], [ 49.791722, 40.3701705 ], [ 49.7922397, 40.3692848 ], [ 49.7927212, 40.3681911 ], [ 49.7932196, 40.3671446 ], [ 49.7935682, 40.3662903 ], [ 49.7939221, 40.3649235 ], [ 49.7940198, 40.3632175 ], [ 49.7946149, 40.3617637 ], [ 49.7954797, 40.3603168 ], [ 49.7966456, 40.3587349 ], [ 49.7971328, 40.3516959 ], [ 49.79683, 40.3501779 ], [ 49.796127, 40.3486872 ], [ 49.7951996, 40.3467731 ], [ 49.7887534, 40.3494795 ], [ 49.7764601, 40.3455216 ], [ 49.7747582, 40.3415407 ], [ 49.7724945, 40.3406379 ], [ 49.7747008, 40.3360491 ], [ 49.7737503, 40.3354442 ], [ 49.7697593, 40.3315136 ], [ 49.7597276, 40.323783 ] ] ] } }
]
}
