{
"type": "FeatureCollection",
"name": "osm_transit",
"crs": { "type": "name", "properties": { "name": "urn:ogc:def:crs:OGC:1.3:CRS84" } },
"features": [
{ "type": "Feature", "properties": { "element": "node", "id": 277364359, "name": "28 May əsas çıxış", "railway": "subway_entrance", "station": null, "public_transport": null }, "geometry": { "type": "Point", "coordinates": [ 49.8489991, 40.3799792 ] } },
{ "type": "Feature", "properties": { "element": "node", "id": 670198805, "name": "İçərişəhər", "railway": "stop", "station": null, "public_transport": "stop_position" }, "geometry": { "type": "Point", "coordinates": [ 49.8316454, 40.3659591 ] } },
{ "type": "Feature", "properties": { "element": "node", "id": 670199291, "name": "Sahil", "railway": "stop", "station": null, "public_transport": "stop_position" }, "geometry": { "type": "Point", "coordinates": [ 49.8445559, 40.3717359 ] } },
{ "type": "Feature", "properties": { "element": "node", "id": 670199298, "name": "Şah İsmayıl Xətai", "railway": "station", "station": "subway", "public_transport": "stop_position" }, "geometry": { "type": "Point", "coordinates": [ 49.8721454, 40.3832514 ] } },
{ "type": "Feature", "properties": { "element": "node", "id": 670216816, "name": "Nizami", "railway": "station", "station": "subway", "public_transport": "stop_position" }, "geometry": { "type": "Point", "coordinates": [ 49.8300187, 40.3793192 ] } },
{ "type": "Feature", "properties": { "element": "node", "id": 670217100, "name": "Elmlər Akademiyası", "railway": "station", "station": "subway", "public_transport": "stop_position" }, "geometry": { "type": "Point", "coordinates": [ 49.8154836, 40.3751519 ] } },
{ "type": "Feature", "properties": { "element": "node", "id": 670217274, "name": "İnşaatçılar", "railway": "station", "station": "subway", "public_transport": "stop_position" }, "geometry": { "type": "Point", "coordinates": [ 49.8023575, 40.3890935 ] } },
{ "type": "Feature", "properties": { "element": "node", "id": 670219440, "name": "Gənclik", "railway": "stop", "station": null, "public_transport": "stop_position" }, "geometry": { "type": "Point", "coordinates": [ 49.8505647, 40.3999085 ] } },
{ "type": "Feature", "properties": { "element": "node", "id": 670219867, "name": "Nəriman Nərimanov", "railway": "stop", "station": null, "public_transport": "stop_position" }, "geometry": { "type": "Point", "coordinates": [ 49.8705891, 40.4028824 ] } },
{ "type": "Feature", "properties": { "element": "node", "id": 670220144, "name": "Bakmil", "railway": "station", "station": "subway", "public_transport": "stop_position" }, "geometry": { "type": "Point", "coordinates": [ 49.8787959, 40.4141403 ] } },
{ "type": "Feature", "properties": { "element": "node", "id": 670220312, "name": "Koroğlu", "railway": "station", "station": "subway", "public_transport": "station" }, "geometry": { "type": "Point", "coordinates": [ 49.9180944, 40.4208641 ] } },
{ "type": "Feature", "properties": { "element": "node", "id": 670220397, "name": "Qara Qarayev", "railway": "station", "station": "subway", "public_transport": "stop_position" }, "geometry": { "type": "Point", "coordinates": [ 49.9339594, 40.4176118 ] } },
{ "type": "Feature", "properties": { "element": "node", "id": 670220410, "name": "Neftçilər", "railway": "station", "station": "subway", "public_transport": "stop_position" }, "geometry": { "type": "Point", "coordinates": [ 49.9425681, 40.411155 ] } },
{ "type": "Feature", "properties": { "element": "node", "id": 670220733, "name": "Xalqlar Dostluğu", "railway": "station", "station": "subway", "public_transport": "stop_position" }, "geometry": { "type": "Point", "coordinates": [ 49.9529864, 40.3968851 ] } },
{ "type": "Feature", "properties": { "element": "node", "id": 670220979, "name": "Əhmədli", "railway": "station", "station": "subway", "public_transport": "stop_position" }, "geometry": { "type": "Point", "coordinates": [ 49.9539452, 40.3855583 ] } },
{ "type": "Feature", "properties": { "element": "node", "id": 670220993, "name": "Həzi Aslanov", "railway": "station", "station": "subway", "public_transport": "stop_position" }, "geometry": { "type": "Point", "coordinates": [ 49.9535736, 40.3730376 ] } },
{ "type": "Feature", "properties": { "element": "node", "id": 1148914625, "name": "Azadlıq prospekti", "railway": "station", "station": "subway", "public_transport": "stop_position" }, "geometry": { "type": "Point", "coordinates": [ 49.8429264, 40.4259622 ] } },
{ "type": "Feature", "properties": { "element": "node", "id": 1156367958, "name": null, "railway": "subway_entrance", "station": null, "public_transport": null }, "geometry": { "type": "Point", "coordinates": [ 49.8409032, 40.4258832 ] } },
{ "type": "Feature", "properties": { "element": "node", "id": 1430720244, "name": null, "railway": null, "station": null, "public_transport": "station" }, "geometry": { "type": "Point", "coordinates": [ 49.9669951, 40.4140432 ] } },
{ "type": "Feature", "properties": { "element": "node", "id": 1461542266, "name": null, "railway": "subway_entrance", "station": null, "public_transport": null }, "geometry": { "type": "Point", "coordinates": [ 49.8716986, 40.4029371 ] } },
{ "type": "Feature", "properties": { "element": "node", "id": 1657069670, "name": null, "railway": null, "station": null, "public_transport": "station" }, "geometry": { "type": "Point", "coordinates": [ 49.7814111, 40.32547 ] } },
{ "type": "Feature", "properties": { "element": "node", "id": 1895813078, "name": "Rəşid Behbudov adına Mahnı Teatrı", "railway": null, "station": null, "public_transport": "stop_position" }, "geometry": { "type": "Point", "coordinates": [ 49.8462979, 40.3750418 ] } },
{ "type": "Feature", "properties": { "element": "node", "id": 1924834867, "name": "Dərnəgül", "railway": "station", "station": "subway", "public_transport": "stop_position" }, "geometry": { "type": "Point", "coordinates": [ 49.8617881, 40.4254022 ] } },
{ "type": "Feature", "properties": { "element": "node", "id": 1930089758, "name": null, "railway": "subway_entrance", "station": null, "public_transport": null }, "geometry": { "type": "Point", "coordinates": [ 49.8077444, 40.4033943 ] } },
{ "type": "Feature", "properties": { "element": "node", "id": 1930089759, "name": null, "railway": "subway_entrance", "station": null, "public_transport": null }, "geometry": { "type": "Point", "coordinates": [ 49.8085034, 40.4036499 ] } },
{ "type": "Feature", "properties": { "element": "node", "id": 1930089762, "name": "20 Yanvar st.", "railway": "station", "station": "subway", "public_transport": "stop_position" }, "geometry": { "type": "Point", "coordinates": [ 49.807702, 40.404139 ] } },
{ "type": "Feature", "properties": { "element": "node", "id": 2295524457, "name": "Cəfər Cabbarlı", "railway": "station", "station": "subway", "public_transport": "stop_position" }, "geometry": { "type": "Point", "coordinates": [ 49.8489498, 40.379652 ] } },
{ "type": "Feature", "properties": { "element": "node", "id": 2556766917, "name": "Ulduz", "railway": "subway_entrance", "station": null, "public_transport": null }, "geometry": { "type": "Point", "coordinates": [ 49.8904283, 40.4147757 ] } },
{ "type": "Feature", "properties": { "element": "node", "id": 2556766925, "name": null, "railway": "subway_entrance", "station": null, "public_transport": null }, "geometry": { "type": "Point", "coordinates": [ 49.8927509, 40.4148135 ] } },
{ "type": "Feature", "properties": { "element": "node", "id": 2556766954, "name": null, "railway": "subway_entrance", "station": null, "public_transport": null }, "geometry": { "type": "Point", "coordinates": [ 49.8926613, 40.4152079 ] } },
{ "type": "Feature", "properties": { "element": "node", "id": 2556912678, "name": "Keşlə dayanacağı", "railway": "stop", "station": null, "public_transport": "stop_position" }, "geometry": { "type": "Point", "coordinates": [ 49.8926871, 40.397849 ] } },
{ "type": "Feature", "properties": { "element": "node", "id": 3077754725, "name": "8 Noyabr", "railway": "stop", "station": null, "public_transport": "stop_position" }, "geometry": { "type": "Point", "coordinates": [ 49.820828, 40.4018871 ] } },
{ "type": "Feature", "properties": { "element": "node", "id": 3080700077, "name": "Keşlə stansiyası", "railway": "station", "station": null, "public_transport": "station" }, "geometry": { "type": "Point", "coordinates": [ 49.8737794, 40.4127139 ] } },
{ "type": "Feature", "properties": { "element": "node", "id": 3080714560, "name": "Abşeron", "railway": "station", "station": null, "public_transport": "station" }, "geometry": { "type": "Point", "coordinates": [ 49.7747597, 40.3369065 ] } },
{ "type": "Feature", "properties": { "element": "node", "id": 3124636134, "name": null, "railway": "subway_entrance", "station": null, "public_transport": null }, "geometry": { "type": "Point", "coordinates": [ 49.8070971, 40.4028588 ] } },
{ "type": "Feature", "properties": { "element": "node", "id": 3124636137, "name": null, "railway": "subway_entrance", "station": null, "public_transport": null }, "geometry": { "type": "Point", "coordinates": [ 49.8068833, 40.4031861 ] } },
{ "type": "Feature", "properties": { "element": "node", "id": 3124636144, "name": null, "railway": "subway_entrance", "station": null, "public_transport": null }, "geometry": { "type": "Point", "coordinates": [ 49.806843, 40.4044122 ] } },
{ "type": "Feature", "properties": { "element": "node", "id": 3124636145, "name": null, "railway": "subway_entrance", "station": null, "public_transport": null }, "geometry": { "type": "Point", "coordinates": [ 49.8078792, 40.4048069 ] } },
{ "type": "Feature", "properties": { "element": "node", "id": 3330582813, "name": null, "railway": "subway_entrance", "station": null, "public_transport": null }, "geometry": { "type": "Point", "coordinates": [ 49.9531822, 40.3969764 ] } },
{ "type": "Feature", "properties": { "element": "node", "id": 3532696464, "name": "Bakıxanov Stansiyası", "railway": "station", "station": null, "public_transport": "station" }, "geometry": { "type": "Point", "coordinates": [ 49.9540048, 40.4315521 ] } },
{ "type": "Feature", "properties": { "element": "node", "id": 3576383753, "name": "Koroğlu", "railway": "halt", "station": null, "public_transport": "stop_position" }, "geometry": { "type": "Point", "coordinates": [ 49.9196451, 40.4193413 ] } },
{ "type": "Feature", "properties": { "element": "node", "id": 3622886022, "name": null, "railway": "subway_entrance", "station": null, "public_transport": null }, "geometry": { "type": "Point", "coordinates": [ 49.916581, 40.4217094 ] } },
{ "type": "Feature", "properties": { "element": "node", "id": 3622969582, "name": null, "railway": "subway_entrance", "station": null, "public_transport": null }, "geometry": { "type": "Point", "coordinates": [ 49.9178076, 40.4202652 ] } },
{ "type": "Feature", "properties": { "element": "node", "id": 3622970206, "name": null, "railway": "subway_entrance", "station": null, "public_transport": null }, "geometry": { "type": "Point", "coordinates": [ 49.9164762, 40.4215044 ] } },
{ "type": "Feature", "properties": { "element": "node", "id": 3696588950, "name": null, "railway": "subway_entrance", "station": null, "public_transport": null }, "geometry": { "type": "Point", "coordinates": [ 49.8299942, 40.3792485 ] } },
{ "type": "Feature", "properties": { "element": "node", "id": 3896343824, "name": null, "railway": "subway_entrance", "station": null, "public_transport": null }, "geometry": { "type": "Point", "coordinates": [ 49.8903205, 40.4148938 ] } },
{ "type": "Feature", "properties": { "element": "node", "id": 3896343827, "name": null, "railway": "subway_entrance", "station": null, "public_transport": null }, "geometry": { "type": "Point", "coordinates": [ 49.8904558, 40.4144103 ] } },
{ "type": "Feature", "properties": { "element": "node", "id": 3896778915, "name": "Ulduz", "railway": "station", "station": "subway", "public_transport": "stop_position" }, "geometry": { "type": "Point", "coordinates": [ 49.8914348, 40.414963 ] } },
{ "type": "Feature", "properties": { "element": "node", "id": 3950438053, "name": "Bakı Dəmiryol Stansiyası", "railway": "station", "station": null, "public_transport": "station" }, "geometry": { "type": "Point", "coordinates": [ 49.8498448, 40.3805137 ] } },
{ "type": "Feature", "properties": { "element": "node", "id": 4039717678, "name": null, "railway": "subway_entrance", "station": null, "public_transport": null }, "geometry": { "type": "Point", "coordinates": [ 49.8515101, 40.4008406 ] } },
{ "type": "Feature", "properties": { "element": "node", "id": 4039717792, "name": null, "railway": "subway_entrance", "station": null, "public_transport": null }, "geometry": { "type": "Point", "coordinates": [ 49.8521526, 40.4012991 ] } },
{ "type": "Feature", "properties": { "element": "node", "id": 4161594118, "name": "Memar Əcəmi", "railway": "station", "station": "subway", "public_transport": "stop_position" }, "geometry": { "type": "Point", "coordinates": [ 49.8139435, 40.4106807 ] } },
{ "type": "Feature", "properties": { "element": "node", "id": 4269504170, "name": null, "railway": "subway_entrance", "station": null, "public_transport": null }, "geometry": { "type": "Point", "coordinates": [ 49.8122675, 40.3750801 ] } },
{ "type": "Feature", "properties": { "element": "node", "id": 4269504171, "name": null, "railway": "subway_entrance", "station": null, "public_transport": null }, "geometry": { "type": "Point", "coordinates": [ 49.8118242, 40.3753056 ] } },
{ "type": "Feature", "properties": { "element": "node", "id": 4333252493, "name": "2 saylı Şəhər Klinik Xəstəxanası", "railway": null, "station": null, "public_transport": "station" }, "geometry": { "type": "Point", "coordinates": [ 49.8643575, 40.3825612 ] } },
{ "type": "Feature", "properties": { "element": "node", "id": 4427541290, "name": "28 May 2-ci çıxış", "railway": "subway_entrance", "station": "subway", "public_transport": null }, "geometry": { "type": "Point", "coordinates": [ 49.8467435, 40.3827943 ] } },
{ "type": "Feature", "properties": { "element": "node", "id": 4446636386, "name": null, "railway": "subway_entrance", "station": null, "public_transport": null }, "geometry": { "type": "Point", "coordinates": [ 49.8696558, 40.4020623 ] } },
{ "type": "Feature", "properties": { "element": "node", "id": 4446636387, "name": null, "railway": "subway_entrance", "station": null, "public_transport": null }, "geometry": { "type": "Point", "coordinates": [ 49.868967, 40.4024671 ] } },
{ "type": "Feature", "properties": { "element": "node", "id": 4601731340, "name": null, "railway": "subway_entrance", "station": null, "public_transport": null }, "geometry": { "type": "Point", "coordinates": [ 49.8151833, 40.4104241 ] } },
{ "type": "Feature", "properties": { "element": "node", "id": 4601731341, "name": null, "railway": "subway_entrance", "station": null, "public_transport": null }, "geometry": { "type": "Point", "coordinates": [ 49.8149459, 40.4118212 ] } },
{ "type": "Feature", "properties": { "element": "node", "id": 4601731342, "name": null, "railway": "subway_entrance", "station": null, "public_transport": null }, "geometry": { "type": "Point", "coordinates": [ 49.8710179, 40.4034532 ] } },
{ "type": "Feature", "properties": { "element": "node", "id": 4658539491, "name": null, "railway": null, "station": null, "public_transport": "station" }, "geometry": { "type": "Point", "coordinates": [ 49.8138975, 40.4054362 ] } },
{ "type": "Feature", "properties": { "element": "node", "id": 4658539789, "name": null, "railway": null, "station": null, "public_transport": "station" }, "geometry": { "type": "Point", "coordinates": [ 49.8190436, 40.4030082 ] } },
{ "type": "Feature", "properties": { "element": "node", "id": 4802437812, "name": "Y15", "railway": "station", "station": "subway", "public_transport": "station" }, "geometry": { "type": "Point", "coordinates": [ 49.9104706, 40.3772671 ] } },
{ "type": "Feature", "properties": { "element": "node", "id": 4802441983, "name": "Məhəmməd Hadi", "railway": "station", "station": "subway", "public_transport": "station" }, "geometry": { "type": "Point", "coordinates": [ 49.9520678, 40.3724161 ] } },
{ "type": "Feature", "properties": { "element": "node", "id": 4860663059, "name": null, "railway": "subway_entrance", "station": null, "public_transport": null }, "geometry": { "type": "Point", "coordinates": [ 49.8526637, 40.4005373 ] } },
{ "type": "Feature", "properties": { "element": "node", "id": 5024318147, "name": null, "railway": "subway_entrance", "station": null, "public_transport": null }, "geometry": { "type": "Point", "coordinates": [ 49.8135999, 40.4105109 ] } },
{ "type": "Feature", "properties": { "element": "node", "id": 5158426525, "name": null, "railway": "subway_entrance", "station": null, "public_transport": null }, "geometry": { "type": "Point", "coordinates": [ 49.8315484, 40.3659091 ] } },
{ "type": "Feature", "properties": { "element": "node", "id": 5158432039, "name": "Sahil", "railway": "subway_entrance", "station": null, "public_transport": null }, "geometry": { "type": "Point", "coordinates": [ 49.8440809, 40.3719795 ] } },
{ "type": "Feature", "properties": { "element": "node", "id": 5159289295, "name": null, "railway": "subway_entrance", "station": null, "public_transport": null }, "geometry": { "type": "Point", "coordinates": [ 49.8507216, 40.3994425 ] } },
{ "type": "Feature", "properties": { "element": "node", "id": 5159289296, "name": null, "railway": "subway_entrance", "station": null, "public_transport": null }, "geometry": { "type": "Point", "coordinates": [ 49.8510925, 40.3998468 ] } },
{ "type": "Feature", "properties": { "element": "node", "id": 5160292901, "name": null, "railway": "subway_entrance", "station": null, "public_transport": null }, "geometry": { "type": "Point", "coordinates": [ 49.8790127, 40.4140085 ] } },
{ "type": "Feature", "properties": { "element": "node", "id": 5160292902, "name": null, "railway": "subway_entrance", "station": null, "public_transport": null }, "geometry": { "type": "Point", "coordinates": [ 49.8789148, 40.4142873 ] } },
{ "type": "Feature", "properties": { "element": "node", "id": 5160776207, "name": null, "railway": "subway_entrance", "station": null, "public_transport": null }, "geometry": { "type": "Point", "coordinates": [ 49.9183037, 40.4208874 ] } },
{ "type": "Feature", "properties": { "element": "node", "id": 5160776212, "name": null, "railway": "subway_entrance", "station": null, "public_transport": null }, "geometry": { "type": "Point", "coordinates": [ 49.9165062, 40.4201396 ] } },
{ "type": "Feature", "properties": { "element": "node", "id": 5160776213, "name": null, "railway": "subway_entrance", "station": null, "public_transport": null }, "geometry": { "type": "Point", "coordinates": [ 49.9330341, 40.4179716 ] } },
{ "type": "Feature", "properties": { "element": "node", "id": 5160776214, "name": null, "railway": "subway_entrance", "station": null, "public_transport": null }, "geometry": { "type": "Point", "coordinates": [ 49.9329501, 40.417572 ] } },
{ "type": "Feature", "properties": { "element": "node", "id": 5160776215, "name": null, "railway": "subway_entrance", "station": null, "public_transport": null }, "geometry": { "type": "Point", "coordinates": [ 49.9356031, 40.4176082 ] } },
{ "type": "Feature", "properties": { "element": "node", "id": 5160776216, "name": null, "railway": "subway_entrance", "station": null, "public_transport": null }, "geometry": { "type": "Point", "coordinates": [ 49.9353667, 40.4171459 ] } },
{ "type": "Feature", "properties": { "element": "node", "id": 5160825228, "name": null, "railway": "subway_entrance", "station": null, "public_transport": null }, "geometry": { "type": "Point", "coordinates": [ 49.9417504, 40.4114763 ] } },
{ "type": "Feature", "properties": { "element": "node", "id": 5160901435, "name": null, "railway": "subway_entrance", "station": null, "public_transport": null }, "geometry": { "type": "Point", "coordinates": [ 49.9425825, 40.4116789 ] } },
{ "type": "Feature", "properties": { "element": "node", "id": 5160901436, "name": null, "railway": "subway_entrance", "station": null, "public_transport": null }, "geometry": { "type": "Point", "coordinates": [ 49.9435458, 40.4104938 ] } },
{ "type": "Feature", "properties": { "element": "node", "id": 5160901437, "name": null, "railway": "subway_entrance", "station": null, "public_transport": null }, "geometry": { "type": "Point", "coordinates": [ 49.9428457, 40.4102385 ] } },
{ "type": "Feature", "properties": { "element": "node", "id": 5160901438, "name": null, "railway": "subway_entrance", "station": null, "public_transport": null }, "geometry": { "type": "Point", "coordinates": [ 49.9438944, 40.4100404 ] } },
{ "type": "Feature", "properties": { "element": "node", "id": 5160901439, "name": null, "railway": "subway_entrance", "station": null, "public_transport": null }, "geometry": { "type": "Point", "coordinates": [ 49.9431997, 40.4097626 ] } },
{ "type": "Feature", "properties": { "element": "node", "id": 5160988024, "name": null, "railway": "subway_entrance", "station": null, "public_transport": null }, "geometry": { "type": "Point", "coordinates": [ 49.9521119, 40.3984835 ] } },
{ "type": "Feature", "properties": { "element": "node", "id": 5161084537, "name": null, "railway": "subway_entrance", "station": null, "public_transport": null }, "geometry": { "type": "Point", "coordinates": [ 49.954192, 40.3859483 ] } },
{ "type": "Feature", "properties": { "element": "node", "id": 5161084538, "name": null, "railway": "subway_entrance", "station": null, "public_transport": null }, "geometry": { "type": "Point", "coordinates": [ 49.9537237, 40.3859518 ] } },
{ "type": "Feature", "properties": { "element": "node", "id": 5161084539, "name": null, "railway": "subway_entrance", "station": null, "public_transport": null }, "geometry": { "type": "Point", "coordinates": [ 49.9542305, 40.3844673 ] } },
{ "type": "Feature", "properties": { "element": "node", "id": 5161084540, "name": null, "railway": "subway_entrance", "station": null, "public_transport": null }, "geometry": { "type": "Point", "coordinates": [ 49.9537241, 40.3844636 ] } },
{ "type": "Feature", "properties": { "element": "node", "id": 5161154451, "name": null, "railway": "subway_entrance", "station": null, "public_transport": null }, "geometry": { "type": "Point", "coordinates": [ 49.953896, 40.3718597 ] } },
{ "type": "Feature", "properties": { "element": "node", "id": 5161154452, "name": null, "railway": "subway_entrance", "station": null, "public_transport": null }, "geometry": { "type": "Point", "coordinates": [ 49.9533142, 40.3718812 ] } },
{ "type": "Feature", "properties": { "element": "node", "id": 5161154453, "name": null, "railway": "subway_entrance", "station": null, "public_transport": null }, "geometry": { "type": "Point", "coordinates": [ 49.9538496, 40.3739404 ] } },
{ "type": "Feature", "properties": { "element": "node", "id": 5161154454, "name": null, "railway": "subway_entrance", "station": null, "public_transport": null }, "geometry": { "type": "Point", "coordinates": [ 49.953458, 40.3739608 ] } },
{ "type": "Feature", "properties": { "element": "node", "id": 5161326967, "name": null, "railway": "subway_entrance", "station": null, "public_transport": null }, "geometry": { "type": "Point", "coordinates": [ 49.8153575, 40.3751916 ] } },
{ "type": "Feature", "properties": { "element": "node", "id": 5162809065, "name": "Keşlə Stansiyası", "railway": "halt", "station": null, "public_transport": "station" }, "geometry": { "type": "Point", "coordinates": [ 49.8925903, 40.3979294 ] } },
{ "type": "Feature", "properties": { "element": "node", "id": 5163514299, "name": null, "railway": "subway_entrance", "station": null, "public_transport": null }, "geometry": { "type": "Point", "coordinates": [ 49.8031174, 40.3890392 ] } },
{ "type": "Feature", "properties": { "element": "node", "id": 5163514300, "name": null, "railway": "subway_entrance", "station": null, "public_transport": null }, "geometry": { "type": "Point", "coordinates": [ 49.8025903, 40.3890059 ] } },
{ "type": "Feature", "properties": { "element": "node", "id": 5163514301, "name": null, "railway": "subway_entrance", "station": null, "public_transport": null }, "geometry": { "type": "Point", "coordinates": [ 49.802211, 40.3914584 ] } },
{ "type": "Feature", "properties": { "element": "node", "id": 5163514302, "name": null, "railway": "subway_entrance", "station": null, "public_transport": null }, "geometry": { "type": "Point", "coordinates": [ 49.8027809, 40.3913216 ] } },
{ "type": "Feature", "properties": { "element": "node", "id": 5164565952, "name": null, "railway": "subway_entrance", "station": null, "public_transport": null }, "geometry": { "type": "Point", "coordinates": [ 49.8136789, 40.4107392 ] } },
{ "type": "Feature", "properties": { "element": "node", "id": 5164565953, "name": null, "railway": "subway_entrance", "station": null, "public_transport": null }, "geometry": { "type": "Point", "coordinates": [ 49.8150055, 40.4120708 ] } },
{ "type": "Feature", "properties": { "element": "node", "id": 5165707428, "name": null, "railway": "subway_entrance", "station": null, "public_transport": null }, "geometry": { "type": "Point", "coordinates": [ 49.8408179, 40.4252757 ] } },
{ "type": "Feature", "properties": { "element": "node", "id": 5165707429, "name": null, "railway": "subway_entrance", "station": null, "public_transport": null }, "geometry": { "type": "Point", "coordinates": [ 49.8428711, 40.425978 ] } },
{ "type": "Feature", "properties": { "element": "node", "id": 5165707430, "name": null, "railway": "subway_entrance", "station": null, "public_transport": null }, "geometry": { "type": "Point", "coordinates": [ 49.8427064, 40.4252498 ] } },
{ "type": "Feature", "properties": { "element": "node", "id": 5165707431, "name": null, "railway": "subway_entrance", "station": null, "public_transport": null }, "geometry": { "type": "Point", "coordinates": [ 49.860733, 40.4256931 ] } },
{ "type": "Feature", "properties": { "element": "node", "id": 5165707432, "name": null, "railway": "subway_entrance", "station": null, "public_transport": null }, "geometry": { "type": "Point", "coordinates": [ 49.8606579, 40.4249672 ] } },
{ "type": "Feature", "properties": { "element": "node", "id": 5165707433, "name": null, "railway": "subway_entrance", "station": null, "public_transport": null }, "geometry": { "type": "Point", "coordinates": [ 49.8625923, 40.4248287 ] } },
{ "type": "Feature", "properties": { "element": "node", "id": 5165707434, "name": null, "railway": "subway_entrance", "station": null, "public_transport": null }, "geometry": { "type": "Point", "coordinates": [ 49.8630008, 40.4256389 ] } },
{ "type": "Feature", "properties": { "element": "node", "id": 5176498843, "name": "28 May mst", "railway": "stop", "station": null, "public_transport": "stop_position" }, "geometry": { "type": "Point", "coordinates": [ 49.8485991, 40.3798464 ] } },
{ "type": "Feature", "properties": { "element": "node", "id": 5176498844, "name": "28 May", "railway": "stop", "station": null, "public_transport": "stop_position" }, "geometry": { "type": "Point", "coordinates": [ 49.8486908, 40.3798432 ] } },
{ "type": "Feature", "properties": { "element": "node", "id": 5188836356, "name": "28 May", "railway": "station", "station": "subway", "public_transport": "station" }, "geometry": { "type": "Point", "coordinates": [ 49.8486359, 40.3798619 ] } },
{ "type": "Feature", "properties": { "element": "node", "id": 5335900355, "name": "Şah İsmayıl Xətai", "railway": "subway_entrance", "station": null, "public_transport": null }, "geometry": { "type": "Point", "coordinates": [ 49.8719543, 40.3830577 ] } },
{ "type": "Feature", "properties": { "element": "node", "id": 5910339375, "name": "Memar Əcəmi", "railway": "stop", "station": null, "public_transport": "stop_position" }, "geometry": { "type": "Point", "coordinates": [ 49.812443, 40.4105171 ] } },
{ "type": "Feature", "properties": { "element": "node", "id": 5913686986, "name": "Şəhidlər Xiyabanı", "railway": "station", "station": "funicular", "public_transport": "station" }, "geometry": { "type": "Point", "coordinates": [ 49.8285034, 40.3585101 ] } },
{ "type": "Feature", "properties": { "element": "node", "id": 5950533911, "name": null, "railway": "subway_entrance", "station": null, "public_transport": null }, "geometry": { "type": "Point", "coordinates": [ 49.8505972, 40.4005091 ] } },
{ "type": "Feature", "properties": { "element": "node", "id": 5950537674, "name": null, "railway": "subway_entrance", "station": null, "public_transport": null }, "geometry": { "type": "Point", "coordinates": [ 49.8120247, 40.4103852 ] } },
{ "type": "Feature", "properties": { "element": "node", "id": 5950537675, "name": null, "railway": "subway_entrance", "station": null, "public_transport": null }, "geometry": { "type": "Point", "coordinates": [ 49.8129307, 40.4109996 ] } },
{ "type": "Feature", "properties": { "element": "node", "id": 5950546154, "name": null, "railway": "subway_entrance", "station": null, "public_transport": null }, "geometry": { "type": "Point", "coordinates": [ 49.811759, 40.3751068 ] } },
{ "type": "Feature", "properties": { "element": "node", "id": 5950546155, "name": null, "railway": "subway_entrance", "station": null, "public_transport": null }, "geometry": { "type": "Point", "coordinates": [ 49.8122634, 40.3753088 ] } },
{ "type": "Feature", "properties": { "element": "node", "id": 5950559505, "name": null, "railway": "subway_entrance", "station": null, "public_transport": null }, "geometry": { "type": "Point", "coordinates": [ 49.849241, 40.3795835 ] } },
{ "type": "Feature", "properties": { "element": "node", "id": 5950559506, "name": null, "railway": "subway_entrance", "station": null, "public_transport": null }, "geometry": { "type": "Point", "coordinates": [ 49.8487231, 40.3795697 ] } },
{ "type": "Feature", "properties": { "element": "node", "id": 5950570610, "name": null, "railway": "subway_entrance", "station": null, "public_transport": null }, "geometry": { "type": "Point", "coordinates": [ 49.9195758, 40.4196411 ] } },
{ "type": "Feature", "properties": { "element": "node", "id": 5950570611, "name": null, "railway": "subway_entrance", "station": null, "public_transport": null }, "geometry": { "type": "Point", "coordinates": [ 49.9198418, 40.4194692 ] } },
{ "type": "Feature", "properties": { "element": "node", "id": 5995369231, "name": "Y14", "railway": "station", "station": "subway", "public_transport": "station" }, "geometry": { "type": "Point", "coordinates": [ 49.8899873, 40.3788687 ] } },
{ "type": "Feature", "properties": { "element": "node", "id": 5996343785, "name": "20 Sentyabr", "railway": "station", "station": "subway", "public_transport": "station" }, "geometry": { "type": "Point", "coordinates": [ 49.8282314, 40.3937251 ] } },
{ "type": "Feature", "properties": { "element": "node", "id": 6005085168, "name": "A. Bakıxanov dayanacağı", "railway": null, "station": null, "public_transport": "stop_position" }, "geometry": { "type": "Point", "coordinates": [ 49.8321308, 40.3880761 ] } },
{ "type": "Feature", "properties": { "element": "node", "id": 6010348738, "name": "8 Noyabr", "railway": "station", "station": "subway", "public_transport": "station" }, "geometry": { "type": "Point", "coordinates": [ 49.8205094, 40.4018671 ] } },
{ "type": "Feature", "properties": { "element": "node", "id": 6021588249, "name": "Y16", "railway": "station", "station": "subway", "public_transport": "station" }, "geometry": { "type": "Point", "coordinates": [ 49.9372571, 40.37142 ] } },
{ "type": "Feature", "properties": { "element": "node", "id": 6149989580, "name": "Koroğlu Avtobus stansiyası", "railway": null, "station": null, "public_transport": "station" }, "geometry": { "type": "Point", "coordinates": [ 49.9188878, 40.4209435 ] } },
{ "type": "Feature", "properties": { "element": "node", "id": 6298433289, "name": "Baku Bus Depo", "railway": null, "station": null, "public_transport": "station" }, "geometry": { "type": "Point", "coordinates": [ 49.9794455, 40.3561722 ] } },
{ "type": "Feature", "properties": { "element": "node", "id": 6418252592, "name": null, "railway": null, "station": null, "public_transport": "station" }, "geometry": { "type": "Point", "coordinates": [ 49.9588163, 40.4169723 ] } },
{ "type": "Feature", "properties": { "element": "node", "id": 6742509928, "name": "Bakıxanov", "railway": "stop", "station": null, "public_transport": "stop_position" }, "geometry": { "type": "Point", "coordinates": [ 49.9538442, 40.4319376 ] } },
{ "type": "Feature", "properties": { "element": "node", "id": 6763552177, "name": "Bəhram Gur", "railway": "station", "station": "funicular", "public_transport": "station" }, "geometry": { "type": "Point", "coordinates": [ 49.8331649, 40.3602847 ] } },
{ "type": "Feature", "properties": { "element": "node", "id": 7124431486, "name": "AYNA", "railway": null, "station": null, "public_transport": "station" }, "geometry": { "type": "Point", "coordinates": [ 49.9099324, 40.4233408 ] } },
{ "type": "Feature", "properties": { "element": "node", "id": 7259856115, "name": "Nəriman Nərimanov", "railway": "stop", "station": null, "public_transport": "stop_position" }, "geometry": { "type": "Point", "coordinates": [ 49.8706869, 40.4027833 ] } },
{ "type": "Feature", "properties": { "element": "node", "id": 7259856116, "name": "Gənclik", "railway": "stop", "station": null, "public_transport": "stop_position" }, "geometry": { "type": "Point", "coordinates": [ 49.8506007, 40.3998792 ] } },
{ "type": "Feature", "properties": { "element": "node", "id": 7259856124, "name": "28 May", "railway": "stop", "station": null, "public_transport": "stop_position" }, "geometry": { "type": "Point", "coordinates": [ 49.8487572, 40.3798701 ] } },
{ "type": "Feature", "properties": { "element": "node", "id": 7259856127, "name": "Sahil", "railway": "stop", "station": null, "public_transport": "stop_position" }, "geometry": { "type": "Point", "coordinates": [ 49.8445867, 40.3717145 ] } },
{ "type": "Feature", "properties": { "element": "node", "id": 7259856130, "name": "İçərişəhər", "railway": "stop", "station": null, "public_transport": "stop_position" }, "geometry": { "type": "Point", "coordinates": [ 49.8316486, 40.3659586 ] } },
{ "type": "Feature", "properties": { "element": "node", "id": 7279336593, "name": "Memar Əcəmi", "railway": "station", "station": "subway", "public_transport": "station" }, "geometry": { "type": "Point", "coordinates": [ 49.8124456, 40.4104823 ] } },
{ "type": "Feature", "properties": { "element": "node", "id": 7279336594, "name": "Memar Əcəmi", "railway": "stop", "station": null, "public_transport": "stop_position" }, "geometry": { "type": "Point", "coordinates": [ 49.8124557, 40.410448 ] } },
{ "type": "Feature", "properties": { "element": "node", "id": 7293339693, "name": null, "railway": "subway_entrance", "station": null, "public_transport": null }, "geometry": { "type": "Point", "coordinates": [ 49.8195909, 40.4023354 ] } },
{ "type": "Feature", "properties": { "element": "node", "id": 7293339694, "name": null, "railway": "subway_entrance", "station": null, "public_transport": null }, "geometry": { "type": "Point", "coordinates": [ 49.8198279, 40.402572 ] } },
{ "type": "Feature", "properties": { "element": "node", "id": 7293339695, "name": null, "railway": "subway_entrance", "station": null, "public_transport": null }, "geometry": { "type": "Point", "coordinates": [ 49.8208664, 40.4016807 ] } },
{ "type": "Feature", "properties": { "element": "node", "id": 7293339696, "name": null, "railway": "subway_entrance", "station": null, "public_transport": null }, "geometry": { "type": "Point", "coordinates": [ 49.821988, 40.4014209 ] } },
{ "type": "Feature", "properties": { "element": "node", "id": 7293343086, "name": "8 Noyabr", "railway": "stop", "station": null, "public_transport": "stop_position" }, "geometry": { "type": "Point", "coordinates": [ 49.8207432, 40.4018009 ] } },
{ "type": "Feature", "properties": { "element": "node", "id": 7868104885, "name": null, "railway": null, "station": null, "public_transport": "station" }, "geometry": { "type": "Point", "coordinates": [ 49.9629388, 40.4184712 ] } },
{ "type": "Feature", "properties": { "element": "node", "id": 8595061611, "name": "Azadlıq pr m/s", "railway": null, "station": null, "public_transport": "stop_position" }, "geometry": { "type": "Point", "coordinates": [ 49.8410023, 40.4253798 ] } },
{ "type": "Feature", "properties": { "element": "node", "id": 8595317972, "name": "Azadlıq prospekti m/st", "railway": null, "station": null, "public_transport": "stop_position" }, "geometry": { "type": "Point", "coordinates": [ 49.8432834, 40.4264648 ] } },
{ "type": "Feature", "properties": { "element": "node", "id": 8595317973, "name": "Dərnəgül m/st", "railway": null, "station": null, "public_transport": "stop_position" }, "geometry": { "type": "Point", "coordinates": [ 49.8615538, 40.4249371 ] } },
{ "type": "Feature", "properties": { "element": "node", "id": 8595317974, "name": "Dərnəgül m/st", "railway": null, "station": null, "public_transport": "stop_position" }, "geometry": { "type": "Point", "coordinates": [ 49.8600921, 40.425484 ] } },
{ "type": "Feature", "properties": { "element": "node", "id": 8595726812, "name": "Bakı", "railway": "stop", "station": null, "public_transport": "stop_position" }, "geometry": { "type": "Point", "coordinates": [ 49.8507303, 40.3807099 ] } },
{ "type": "Feature", "properties": { "element": "node", "id": 8595726813, "name": "Bakı", "railway": "stop", "station": null, "public_transport": "stop_position" }, "geometry": { "type": "Point", "coordinates": [ 49.8506295, 40.3807789 ] } },
{ "type": "Feature", "properties": { "element": "node", "id": 8595726814, "name": "Bakı", "railway": "stop", "station": null, "public_transport": "stop_position" }, "geometry": { "type": "Point", "coordinates": [ 49.8505852, 40.3808085 ] } },
{ "type": "Feature", "properties": { "element": "node", "id": 8595726815, "name": "Bakı", "railway": "stop", "station": null, "public_transport": "stop_position" }, "geometry": { "type": "Point", "coordinates": [ 49.8504757, 40.3808816 ] } },
{ "type": "Feature", "properties": { "element": "node", "id": 8595726816, "name": "Bakı", "railway": "stop", "station": null, "public_transport": "stop_position" }, "geometry": { "type": "Point", "coordinates": [ 49.8504101, 40.3809266 ] } },
{ "type": "Feature", "properties": { "element": "node", "id": 8595761417, "name": "Bakı", "railway": "stop", "station": null, "public_transport": "stop_position" }, "geometry": { "type": "Point", "coordinates": [ 49.8503171, 40.3809922 ] } },
{ "type": "Feature", "properties": { "element": "node", "id": 8595761418, "name": "Bakı", "railway": "stop", "station": null, "public_transport": "stop_position" }, "geometry": { "type": "Point", "coordinates": [ 49.8502185, 40.3810541 ] } },
{ "type": "Feature", "properties": { "element": "node", "id": 8595761419, "name": "Bakı", "railway": "stop", "station": null, "public_transport": "stop_position" }, "geometry": { "type": "Point", "coordinates": [ 49.8501339, 40.3811134 ] } },
{ "type": "Feature", "properties": { "element": "node", "id": 8595761420, "name": "Keşlə dayanacağı", "railway": "stop", "station": null, "public_transport": "stop_position" }, "geometry": { "type": "Point", "coordinates": [ 49.8920185, 40.3973015 ] } },
{ "type": "Feature", "properties": { "element": "node", "id": 8595761421, "name": "Bakıxanov", "railway": "stop", "station": null, "public_transport": "stop_position" }, "geometry": { "type": "Point", "coordinates": [ 49.9536967, 40.4315519 ] } },
{ "type": "Feature", "properties": { "element": "node", "id": 8596753279, "name": "Koroğlu m/st", "railway": null, "station": null, "public_transport": "stop_position" }, "geometry": { "type": "Point", "coordinates": [ 49.9152886, 40.4230422 ] } },
{ "type": "Feature", "properties": { "element": "node", "id": 9635235525, "name": "Koroğlu", "railway": "stop", "station": null, "public_transport": "stop_position" }, "geometry": { "type": "Point", "coordinates": [ 49.918092, 40.420763 ] } },
{ "type": "Feature", "properties": { "element": "node", "id": 9864184294, "name": "Montin \\ Nərimanov Stansiyası", "railway": "station", "station": null, "public_transport": "station" }, "geometry": { "type": "Point", "coordinates": [ 49.8769695, 40.3897452 ] } },
{ "type": "Feature", "properties": { "element": "node", "id": 11194671201, "name": null, "railway": null, "station": null, "public_transport": "station" }, "geometry": { "type": "Point", "coordinates": [ 49.7819334, 40.3263288 ] } },
{ "type": "Feature", "properties": { "element": "node", "id": 11196207114, "name": "Avtovağzal", "railway": null, "station": null, "public_transport": "station" }, "geometry": { "type": "Point", "coordinates": [ 49.7728367, 40.3252256 ] } },
{ "type": "Feature", "properties": { "element": "node", "id": 11281520288, "name": "Koroğlu", "railway": "stop", "station": null, "public_transport": "stop_position" }, "geometry": { "type": "Point", "coordinates": [ 49.9196293, 40.4194953 ] } },
{ "type": "Feature", "properties": { "element": "node", "id": 11622641263, "name": "Nəriman Nərimanov", "railway": "station", "station": "subway", "public_transport": "station" }, "geometry": { "type": "Point", "coordinates": [ 49.8706376, 40.4028217 ] } },
{ "type": "Feature", "properties": { "element": "node", "id": 11622641264, "name": "Gənclik", "railway": "station", "station": "subway", "public_transport": "station" }, "geometry": { "type": "Point", "coordinates": [ 49.850956, 40.3998793 ] } },
{ "type": "Feature", "properties": { "element": "node", "id": 11622641266, "name": "Sahil", "railway": "station", "station": "subway", "public_transport": "station" }, "geometry": { "type": "Point", "coordinates": [ 49.8445724, 40.3717258 ] } },
{ "type": "Feature", "properties": { "element": "node", "id": 11622641267, "name": "İçərişəhər", "railway": "station", "station": "subway", "public_transport": "station" }, "geometry": { "type": "Point", "coordinates": [ 49.8316472, 40.3659588 ] } },
{ "type": "Feature", "properties": { "element": "node", "id": 11760387618, "name": "Sahil Metrosu", "railway": "subway_entrance", "station": null, "public_transport": null }, "geometry": { "type": "Point", "coordinates": [ 49.8446367, 40.371785 ] } },
{ "type": "Feature", "properties": { "element": "node", "id": 11810454533, "name": null, "railway": "subway_entrance", "station": null, "public_transport": null }, "geometry": { "type": "Point", "coordinates": [ 49.81482, 40.410316 ] } },
{ "type": "Feature", "properties": { "element": "node", "id": 11944792880, "name": null, "railway": "subway_entrance", "station": null, "public_transport": null }, "geometry": { "type": "Point", "coordinates": [ 49.8720804, 40.3832673 ] } },
{ "type": "Feature", "properties": { "element": "node", "id": 12076055214, "name": null, "railway": "subway_entrance", "station": null, "public_transport": null }, "geometry": { "type": "Point", "coordinates": [ 49.9527942, 40.3967409 ] } },
{ "type": "Feature", "properties": { "element": "node", "id": 12076055215, "name": null, "railway": "subway_entrance", "station": null, "public_transport": null }, "geometry": { "type": "Point", "coordinates": [ 49.9516141, 40.3983343 ] } },
{ "type": "Feature", "properties": { "element": "node", "id": 12252228801, "name": "Aero Express shuttle to Airport (GYD)", "railway": null, "station": null, "public_transport": "station" }, "geometry": { "type": "Point", "coordinates": [ 49.854335, 40.3785416 ] } },
{ "type": "Feature", "properties": { "element": "node", "id": 12328953982, "name": "Abşeron Ticarət Mərkəzi dayanacağı", "railway": null, "station": null, "public_transport": "station" }, "geometry": { "type": "Point", "coordinates": [ 49.7634225, 40.3234274 ] } },
{ "type": "Feature", "properties": { "element": "node", "id": 13374354716, "name": null, "railway": "subway_entrance", "station": null, "public_transport": null }, "geometry": { "type": "Point", "coordinates": [ 49.871427, 40.4028171 ] } },
{ "type": "Feature", "properties": { "element": "node", "id": 13401743373, "name": "Dərnəgül stansiyası", "railway": "station", "station": null, "public_transport": "station" }, "geometry": { "type": "Point", "coordinates": [ 49.8637123, 40.4261425 ] } },
{ "type": "Feature", "properties": { "element": "node", "id": 13857117060, "name": "Dərnəgül deposu", "railway": "station", "station": "subway", "public_transport": "station" }, "geometry": { "type": "Point", "coordinates": [ 49.8574751, 40.4335133 ] } },
{ "type": "Feature", "properties": { "element": "node", "id": 14066809342, "name": null, "railway": null, "station": null, "public_transport": "station" }, "geometry": { "type": "Point", "coordinates": [ 49.8181348, 40.423632 ] } },
{ "type": "Feature", "properties": { "element": "node", "id": 14120535816, "name": null, "railway": "subway_entrance", "station": null, "public_transport": null }, "geometry": { "type": "Point", "coordinates": [ 49.9332533, 40.4179318 ] } },
{ "type": "Feature", "properties": { "element": "node", "id": 14120535817, "name": null, "railway": "subway_entrance", "station": null, "public_transport": null }, "geometry": { "type": "Point", "coordinates": [ 49.9331403, 40.4175206 ] } },
{ "type": "Feature", "properties": { "element": "way", "id": 25402557, "name": "Bakı Dəniz Vağzalı", "railway": null, "station": null, "public_transport": "station" }, "geometry": { "type": "Polygon", "coordinates": [ [ [ 49.8563992, 40.3732446 ], [ 49.8573502, 40.3734746 ], [ 49.8575018, 40.3731108 ], [ 49.8565508, 40.3728808 ], [ 49.8563992, 40.3732446 ] ] ] } },
{ "type": "Feature", "properties": { "element": "way", "id": 153134223, "name": "Funikulyor", "railway": null, "station": null, "public_transport": "station" }, "geometry": { "type": "Polygon", "coordinates": [ [ [ 49.8329136, 40.3602568 ], [ 49.8329984, 40.3601371 ], [ 49.8332637, 40.3602462 ], [ 49.8332193, 40.3603089 ], [ 49.8331789, 40.3603659 ], [ 49.8329136, 40.3602568 ] ] ] } },
{ "type": "Feature", "properties": { "element": "way", "id": 1047320518, "name": "Koroğlu Nəqliyyat Mübadilə Mərkəzi", "railway": null, "station": null, "public_transport": "station" }, "geometry": { "type": "Polygon", "coordinates": [ [ [ 49.9161175, 40.4242833 ], [ 49.9161591, 40.4242626 ], [ 49.916143, 40.4242134 ], [ 49.9161272, 40.4241709 ], [ 49.9161186, 40.4241168 ], [ 49.916117, 40.4240684 ], [ 49.9161192, 40.4240222 ], [ 49.9161224, 40.4239713 ], [ 49.9161289, 40.4239289 ], [ 49.9161408, 40.423885 ], [ 49.916158, 40.4238432 ], [ 49.9161887, 40.4237894 ], [ 49.9162628, 40.423696 ], [ 49.9163163, 40.4236385 ], [ 49.9163514, 40.4236022 ], [ 49.9163844, 40.4235638 ], [ 49.9164361, 40.4234997 ], [ 49.9165086, 40.4234222 ], [ 49.916555, 40.4233699 ], [ 49.9165851, 40.4233318 ], [ 49.9165919, 40.4233117 ], [ 49.9165953, 40.423296 ], [ 49.9165964, 40.4232809 ], [ 49.9165946, 40.4232643 ], [ 49.9165911, 40.4232464 ], [ 49.9165837, 40.4232292 ], [ 49.9165769, 40.4232121 ], [ 49.9165649, 40.4231949 ], [ 49.9165414, 40.4231777 ], [ 49.9165094, 40.4231623 ], [ 49.9159901, 40.4229485 ], [ 49.91598, 40.4228405 ], [ 49.9152566, 40.4225181 ], [ 49.9146215, 40.4233048 ], [ 49.9145857, 40.4233728 ], [ 49.9145671, 40.4234375 ], [ 49.9145702, 40.4234817 ], [ 49.9146041, 40.4235194 ], [ 49.9146373, 40.4235397 ], [ 49.9146592, 40.4235527 ], [ 49.9161175, 40.4242833 ] ] ] } }
]
}
